start=new Date('2023-03-14T00:00:00.000Z').valueOf();
sats=[{"COUNTRY_CODE":"US","RCS_SIZE":"LARGE","OBJECT_NAME":"STARLINK-3193","PERIOD":"95.437","OBJECT_TYPE":"PAYLOAD","LAUNCH_DATE":"2021-12-02","SITE":"AFETR","MEAN_ANOMALY":"264.2474","SEMIMAJOR_AXIS":"6917.856","REF_FRAME":"TEME","CENTER_NAME":"EARTH","ARG_OF_PERICENTER":"95.8620","RA_OF_ASC_NODE":"3.6839","MEAN_ELEMENT_THEORY":"SGP4","FILE":"3859425","INCLINATION":"53.2174","OBJECT_ID":"2021-115AG","DECAY_DATE":null,"TIME_SYSTEM":"UTC","REV_AT_EPOCH":"7074","ECCENTRICITY":"0.00008930","APOAPSIS":"540.339","TLE_LINE2":"2 49754  53.2174   3.6839 0000893  95.8620 264.2474 15.08847896 70745","MEAN_MOTION_DDOT":"0.0000000000000","EPOCH":"2023-03-13T04:22:26.400000","CLASSIFICATION_TYPE":"U","MEAN_MOTION_DOT":"0.00018237","ELEMENT_SET_NO":"999","EPHEMERIS_TYPE":"0","BSTAR":"0.00116070000000","GP_ID":"228003557","NORAD_CAT_ID":"49754","PERIAPSIS":"539.103","TLE_LINE1":"1 49754U 21115AG  23072.18225000  .00018237  00000-0  11607-2 0  9999","MEAN_MOTION":"15.08847896"},{"RCS_SIZE":"LARGE","COUNTRY_CODE":"US","OBJECT_NAME":"STARLINK-3210","PERIOD":"95.438","OBJECT_TYPE":"PAYLOAD","LAUNCH_DATE":"2021-12-02","SITE":"AFETR","SEMIMAJOR_AXIS":"6917.911","MEAN_ANOMALY":"261.4001","REF_FRAME":"TEME","CENTER_NAME":"EARTH","RA_OF_ASC_NODE":"10.6701","ARG_OF_PERICENTER":"98.7192","MEAN_ELEMENT_THEORY":"SGP4","INCLINATION":"53.2189","FILE":"3859549","DECAY_DATE":null,"OBJECT_ID":"2021-115AH","TIME_SYSTEM":"UTC","REV_AT_EPOCH":"7181","ECCENTRICITY":"0.00017730","APOAPSIS":"541.002","TLE_LINE2":"2 49755  53.2189  10.6701 0001773  98.7192 261.4001 15.08830137 71816","MEAN_MOTION_DDOT":"0.0000000000000","EPOCH":"2023-03-13T19:53:44.986560","CLASSIFICATION_TYPE":"U","MEAN_MOTION_DOT":"0.00029306","ELEMENT_SET_NO":"999","EPHEMERIS_TYPE":"0","GP_ID":"228010396","BSTAR":"0.00185230000000","NORAD_CAT_ID":"49755","PERIAPSIS":"538.549","TLE_LINE1":"1 49755U 21115AH  23072.82899290  .00029306  00000-0  18523-2 0  9992","MEAN_MOTION":"15.08830137"},{"TLE_LINE2":"2 49756  53.2166   0.2728 0001186 137.2824 222.8260 15.08848708 70859","MEAN_MOTION_DDOT":"0.0000000000000","CLASSIFICATION_TYPE":"U","EPOCH":"2023-03-13T22:02:14.808480","MEAN_MOTION_DOT":"0.00029182","ELEMENT_SET_NO":"999","EPHEMERIS_TYPE":"0","BSTAR":"0.00184360000000","GP_ID":"228033690","NORAD_CAT_ID":"49756","PERIAPSIS":"538.898","TLE_LINE1":"1 49756U 21115AJ  23072.91822695  .00029182  00000-0  18436-2 0  9993","MEAN_MOTION":"15.08848708","RCS_SIZE":"LARGE","COUNTRY_CODE":"US","OBJECT_NAME":"STARLINK-3207","PERIOD":"95.437","OBJECT_TYPE":"PAYLOAD","LAUNCH_DATE":"2021-12-02","SITE":"AFETR","SEMIMAJOR_AXIS":"6917.854","REF_FRAME":"TEME","MEAN_ANOMALY":"222.8260","CENTER_NAME":"EARTH","ARG_OF_PERICENTER":"137.2824","RA_OF_ASC_NODE":"0.2728","MEAN_ELEMENT_THEORY":"SGP4","FILE":"3859631","INCLINATION":"53.2166","OBJECT_ID":"2021-115AJ","DECAY_DATE":null,"TIME_SYSTEM":"UTC","REV_AT_EPOCH":"7085","ECCENTRICITY":"0.00011860","APOAPSIS":"540.539"},{"REV_AT_EPOCH":"7074","ECCENTRICITY":"0.00013680","APOAPSIS":"540.599","DECAY_DATE":null,"OBJECT_ID":"2021-115AK","TIME_SYSTEM":"UTC","FILE":"3859425","INCLINATION":"53.2171","SITE":"AFETR","REF_FRAME":"TEME","SEMIMAJOR_AXIS":"6917.787","MEAN_ANOMALY":"265.4910","CENTER_NAME":"EARTH","ARG_OF_PERICENTER":"94.6239","MEAN_ELEMENT_THEORY":"SGP4","RA_OF_ASC_NODE":"3.5829","LAUNCH_DATE":"2021-12-02","OBJECT_TYPE":"PAYLOAD","COUNTRY_CODE":"US","RCS_SIZE":"LARGE","OBJECT_NAME":"STARLINK-3197","PERIOD":"95.436","TLE_LINE1":"1 49757U 21115AK  23072.18318101  .00016441  00000-0  10478-2 0  9997","MEAN_MOTION":"15.08870448","PERIAPSIS":"538.706","BSTAR":"0.00104780000000","GP_ID":"228002302","NORAD_CAT_ID":"49757","EPHEMERIS_TYPE":"0","MEAN_MOTION_DOT":"0.00016441","ELEMENT_SET_NO":"999","MEAN_MOTION_DDOT":"0.0000000000000","EPOCH":"2023-03-13T04:23:46.839264","CLASSIFICATION_TYPE":"U","TLE_LINE2":"2 49757  53.2171   3.5829 0001368  94.6239 265.4910 15.08870448 70741"},{"LAUNCH_DATE":"2021-12-02","OBJECT_NAME":"STARLINK-3194","RCS_SIZE":"LARGE","COUNTRY_CODE":"US","PERIOD":"95.438","OBJECT_TYPE":"PAYLOAD","DECAY_DATE":null,"OBJECT_ID":"2021-115AL","TIME_SYSTEM":"UTC","ECCENTRICITY":"0.00001230","REV_AT_EPOCH":"7085","APOAPSIS":"539.847","REF_FRAME":"TEME","SEMIMAJOR_AXIS":"6917.897","MEAN_ANOMALY":"271.8350","SITE":"AFETR","ARG_OF_PERICENTER":"88.2657","RA_OF_ASC_NODE":"0.2494","MEAN_ELEMENT_THEORY":"SGP4","CENTER_NAME":"EARTH","FILE":"3859631","INCLINATION":"53.2162","ELEMENT_SET_NO":"999","MEAN_MOTION_DOT":"0.00032479","EPHEMERIS_TYPE":"0","TLE_LINE2":"2 49758  53.2162   0.2494 0000123  88.2657 271.8350 15.08834719 70857","MEAN_MOTION_DDOT":"0.0000000000000","CLASSIFICATION_TYPE":"U","EPOCH":"2023-03-13T22:12:50.539680","PERIAPSIS":"539.676","MEAN_MOTION":"15.08834719","TLE_LINE1":"1 49758U 21115AL  23072.92558495  .00032479  00000-0  20497-2 0  9993","BSTAR":"0.00204970000000","GP_ID":"228034691","NORAD_CAT_ID":"49758"},{"BSTAR":"0.00091304000000","GP_ID":"228010062","NORAD_CAT_ID":"49759","TLE_LINE1":"1 49759U 21115AM  23072.84831122  .00014265  00000-0  91304-3 0  9995","MEAN_MOTION":"15.08819460","PERIAPSIS":"538.845","MEAN_MOTION_DDOT":"0.0000000000000","CLASSIFICATION_TYPE":"U","EPOCH":"2023-03-13T20:21:34.089408","TLE_LINE2":"2 49759  53.2174   0.5817 0001392 102.0847 258.0301 15.08819460 71959","EPHEMERIS_TYPE":"0","MEAN_MOTION_DOT":"0.00014265","ELEMENT_SET_NO":"999","FILE":"3859542","INCLINATION":"53.2174","SITE":"AFETR","SEMIMAJOR_AXIS":"6917.943","MEAN_ANOMALY":"258.0301","REF_FRAME":"TEME","CENTER_NAME":"EARTH","MEAN_ELEMENT_THEORY":"SGP4","ARG_OF_PERICENTER":"102.0847","RA_OF_ASC_NODE":"0.5817","REV_AT_EPOCH":"7195","ECCENTRICITY":"0.00013920","APOAPSIS":"540.771","OBJECT_ID":"2021-115AM","DECAY_DATE":null,"TIME_SYSTEM":"UTC","OBJECT_TYPE":"PAYLOAD","COUNTRY_CODE":"US","RCS_SIZE":"LARGE","OBJECT_NAME":"STARLINK-3204","PERIOD":"95.439","LAUNCH_DATE":"2021-12-02"},{"TLE_LINE2":"2 49760  53.2177   0.8061 0001192  77.2439 282.8686 15.08827545 71950","EPOCH":"2023-03-13T19:12:41.089248","CLASSIFICATION_TYPE":"U","MEAN_MOTION_DDOT":"0.0000000000000","ELEMENT_SET_NO":"999","MEAN_MOTION_DOT":"-0.00002075","EPHEMERIS_TYPE":"0","NORAD_CAT_ID":"49760","GP_ID":"228010135","BSTAR":"-0.00011235000000","PERIAPSIS":"538.959","MEAN_MOTION":"15.08827545","TLE_LINE1":"1 49760U 21115AN  23072.80047557 -.00002075  00000-0 -11235-3 0  9997","PERIOD":"95.438","OBJECT_NAME":"STARLINK-3199","RCS_SIZE":"LARGE","COUNTRY_CODE":"US","OBJECT_TYPE":"PAYLOAD","LAUNCH_DATE":"2021-12-02","ARG_OF_PERICENTER":"77.2439","RA_OF_ASC_NODE":"0.8061","MEAN_ELEMENT_THEORY":"SGP4","CENTER_NAME":"EARTH","MEAN_ANOMALY":"282.8686","SEMIMAJOR_AXIS":"6917.918","REF_FRAME":"TEME","SITE":"AFETR","FILE":"3859549","INCLINATION":"53.2177","TIME_SYSTEM":"UTC","OBJECT_ID":"2021-115AN","DECAY_DATE":null,"APOAPSIS":"540.608","ECCENTRICITY":"0.00011920","REV_AT_EPOCH":"7195"},{"OBJECT_TYPE":"PAYLOAD","PERIOD":"95.438","OBJECT_NAME":"STARLINK-3203","RCS_SIZE":"LARGE","COUNTRY_CODE":"US","LAUNCH_DATE":"2021-12-02","FILE":"3859550","INCLINATION":"53.2162","ARG_OF_PERICENTER":"93.1300","RA_OF_ASC_NODE":"0.8474","MEAN_ELEMENT_THEORY":"SGP4","CENTER_NAME":"EARTH","REF_FRAME":"TEME","SEMIMAJOR_AXIS":"6917.918","MEAN_ANOMALY":"266.9881","SITE":"AFETR","APOAPSIS":"540.922","ECCENTRICITY":"0.00016460","REV_AT_EPOCH":"7194","TIME_SYSTEM":"UTC","OBJECT_ID":"2021-115AP","DECAY_DATE":null,"EPOCH":"2023-03-13T18:56:47.157216","CLASSIFICATION_TYPE":"U","MEAN_MOTION_DDOT":"0.0000000000000","TLE_LINE2":"2 49761  53.2162   0.8474 0001646  93.1300 266.9881 15.08827727 71942","EPHEMERIS_TYPE":"0","ELEMENT_SET_NO":"999","MEAN_MOTION_DOT":"0.00009786","NORAD_CAT_ID":"49761","GP_ID":"228010407","BSTAR":"0.00063227000000","MEAN_MOTION":"15.08827727","TLE_LINE1":"1 49761U 21115AP  23072.78943469  .00009786  00000-0  63227-3 0  9994","PERIAPSIS":"538.644"},{"TLE_LINE2":"2 49762  53.2182   0.1703 0001083  97.9849 262.1266 15.08837344 70869","MEAN_MOTION_DDOT":"0.0000000000000","CLASSIFICATION_TYPE":"U","EPOCH":"2023-03-13T22:34:02.448768","ELEMENT_SET_NO":"999","MEAN_MOTION_DOT":"0.00007110","EPHEMERIS_TYPE":"0","GP_ID":"228034193","BSTAR":"0.00046439000000","NORAD_CAT_ID":"49762","PERIAPSIS":"539.004","MEAN_MOTION":"15.08837344","TLE_LINE1":"1 49762U 21115AQ  23072.94030612  .00007110  00000-0  46439-3 0  9995","OBJECT_NAME":"STARLINK-3195","COUNTRY_CODE":"US","RCS_SIZE":"LARGE","PERIOD":"95.438","OBJECT_TYPE":"PAYLOAD","LAUNCH_DATE":"2021-12-02","SEMIMAJOR_AXIS":"6917.889","MEAN_ANOMALY":"262.1266","REF_FRAME":"TEME","SITE":"AFETR","ARG_OF_PERICENTER":"97.9849","RA_OF_ASC_NODE":"0.1703","MEAN_ELEMENT_THEORY":"SGP4","CENTER_NAME":"EARTH","FILE":"3859631","INCLINATION":"53.2182","OBJECT_ID":"2021-115AQ","DECAY_DATE":null,"TIME_SYSTEM":"UTC","ECCENTRICITY":"0.00010830","REV_AT_EPOCH":"7086","APOAPSIS":"540.503"},{"COUNTRY_CODE":"US","RCS_SIZE":"LARGE","OBJECT_NAME":"STARLINK-3198","PERIOD":"95.438","OBJECT_TYPE":"PAYLOAD","LAUNCH_DATE":"2021-12-02","SITE":"AFETR","SEMIMAJOR_AXIS":"6917.878","MEAN_ANOMALY":"271.5081","REF_FRAME":"TEME","CENTER_NAME":"EARTH","RA_OF_ASC_NODE":"0.8224","ARG_OF_PERICENTER":"88.6060","MEAN_ELEMENT_THEORY":"SGP4","FILE":"3859549","INCLINATION":"53.2167","DECAY_DATE":null,"OBJECT_ID":"2021-115AR","TIME_SYSTEM":"UTC","REV_AT_EPOCH":"7195","ECCENTRICITY":"0.00013000","APOAPSIS":"540.642","TLE_LINE2":"2 49763  53.2167   0.8224 0001300  88.6060 271.5081 15.08840828 71953","MEAN_MOTION_DDOT":"0.0000000000000","EPOCH":"2023-03-13T19:07:22.536768","CLASSIFICATION_TYPE":"U","MEAN_MOTION_DOT":"0.00012659","ELEMENT_SET_NO":"999","EPHEMERIS_TYPE":"0","BSTAR":"0.00081199000000","GP_ID":"228010130","NORAD_CAT_ID":"49763","PERIAPSIS":"538.844","TLE_LINE1":"1 49763U 21115AR  23072.79678862  .00012659  00000-0  81199-3 0  9990","MEAN_MOTION":"15.08840828"}];
